TRANSPORTER-12 OBJECT AZ
1 62656U 25009AZ  26068.71026235  .00016057  00000+0  54903-3 0  9991
2 62656  97.3981 151.9913 0000987  45.3581 314.7740 15.30349724 63792
STARLINK-32797          
1 62843U 25019Q   26068.44081529  .00022869  00000+0  83783-3 0  9993
2 62843  43.0038  90.3174 0001649 276.4887  83.5777 15.27586348 62216
